{
  "norad_id": 63317,
  "name": "STARLINK-11633 [DTC]",
  "history": [
    {
      "epoch": "2026-03-28T14:00:26.899488Z",
      "apogee_km": 357.03677180370323,
      "perigee_km": 355.17946699977256,
      "latitude_deg": -4.7838182502703385e-05,
      "longitude_deg": 114.12376555006863,
      "height_km": 355.85378215051105,
      "semi_major_axis_km": 6734.245119401738,
      "eccentricity": 0.0001379,
      "inclination_deg": 43.0012,
      "raan_deg": 150.2379,
      "arg_perigee_deg": 271.6598,
      "mean_anomaly_deg": 88.4111,
      "mean_motion_rev_day": 15.7097539
    }
  ]
}