{"fetched_at":"2026-03-29T02:12:04Z","count":15717,"tles":[{"name":"STARLINK-11633 [DTC]","line1":"1 63317U 25057L   26087.58364467  .00209935  00000+0  15895-2 0  9992","line2":"2 63317  43.0012 150.2379 0001379 271.6598  88.4111 15.70975390 60158","category":"Starlink"}]}